start=new Date('2021-11-21T00:00:00.000Z').valueOf();
sats=[{"PERIOD":"95.593","CLASSIFICATION_TYPE":"U","DECAY_DATE":null,"GP_ID":"190147102","MEAN_MOTION":"15.06385020","MEAN_MOTION_DOT":"-0.00000420","SEMIMAJOR_AXIS":"6925.394","OBJECT_NAME":"STARLINK-1693","ARG_OF_PERICENTER":"69.3093","EPHEMERIS_TYPE":"0","MEAN_MOTION_DDOT":"0.0000000000000","INCLINATION":"53.0557","FILE":"3220199","APOAPSIS":"548.198","ELEMENT_SET_NO":"999","CENTER_NAME":"EARTH","MEAN_ELEMENT_THEORY":"SGP4","SITE":"AFETR","TLE_LINE1":"1 46543U 20070M   21324.66897534 -.00000420  00000-0 -93353-5 0  9997","BSTAR":"-0.00000933530000","OBJECT_TYPE":"PAYLOAD","RCS_SIZE":"LARGE","RA_OF_ASC_NODE":"24.7117","TIME_SYSTEM":"UTC","ECCENTRICITY":"0.00013550","NORAD_CAT_ID":"46543","OBJECT_ID":"2020-070M","REV_AT_EPOCH":"6288","MEAN_ANOMALY":"290.8041","REF_FRAME":"TEME","PERIAPSIS":"546.321","COUNTRY_CODE":"US","LAUNCH_DATE":"2020-10-06","TLE_LINE2":"2 46543  53.0557  24.7117 0001355  69.3093 290.8041 15.06385020 62883","EPOCH":"2021-11-20T16:03:19.469376"},{"GP_ID":"190141242","DECAY_DATE":null,"CLASSIFICATION_TYPE":"U","PERIOD":"95.592","EPHEMERIS_TYPE":"0","ARG_OF_PERICENTER":"80.4078","OBJECT_NAME":"STARLINK-1694","SEMIMAJOR_AXIS":"6925.353","MEAN_MOTION_DOT":"0.00000738","MEAN_MOTION":"15.06398449","ELEMENT_SET_NO":"999","CENTER_NAME":"EARTH","APOAPSIS":"548.151","FILE":"3220049","INCLINATION":"53.0566","MEAN_MOTION_DDOT":"0.0000000000000","BSTAR":"0.00006842400000","TLE_LINE1":"1 46544U 20070N   21324.46578723  .00000738  00000-0  68424-4 0  9992","SITE":"AFETR","MEAN_ELEMENT_THEORY":"SGP4","RA_OF_ASC_NODE":"10.6263","RCS_SIZE":"LARGE","OBJECT_TYPE":"PAYLOAD","NORAD_CAT_ID":"46544","ECCENTRICITY":"0.00013470","TIME_SYSTEM":"UTC","REF_FRAME":"TEME","MEAN_ANOMALY":"279.7063","REV_AT_EPOCH":"6304","OBJECT_ID":"2020-070N","EPOCH":"2021-11-20T11:10:44.016672","TLE_LINE2":"2 46544  53.0566  10.6263 0001347  80.4078 279.7063 15.06398449 63046","LAUNCH_DATE":"2020-10-06","COUNTRY_CODE":"US","PERIAPSIS":"546.285"},{"OBJECT_TYPE":"PAYLOAD","RA_OF_ASC_NODE":"24.8564","RCS_SIZE":"LARGE","TIME_SYSTEM":"UTC","NORAD_CAT_ID":"46545","ECCENTRICITY":"0.00013010","REV_AT_EPOCH":"6286","OBJECT_ID":"2020-070P","REF_FRAME":"TEME","MEAN_ANOMALY":"293.8754","LAUNCH_DATE":"2020-10-06","COUNTRY_CODE":"US","PERIAPSIS":"546.334","EPOCH":"2021-11-20T15:20:51.247392","TLE_LINE2":"2 46545  53.0564  24.8564 0001301  66.2371 293.8754 15.06392926 62861","CLASSIFICATION_TYPE":"U","PERIOD":"95.593","GP_ID":"190147117","DECAY_DATE":null,"SEMIMAJOR_AXIS":"6925.370","MEAN_MOTION_DOT":"0.00000405","MEAN_MOTION":"15.06392926","EPHEMERIS_TYPE":"0","ARG_OF_PERICENTER":"66.2371","OBJECT_NAME":"STARLINK-1696","MEAN_MOTION_DDOT":"0.0000000000000","ELEMENT_SET_NO":"999","CENTER_NAME":"EARTH","APOAPSIS":"548.136","FILE":"3220200","INCLINATION":"53.0564","MEAN_ELEMENT_THEORY":"SGP4","BSTAR":"0.00004605800000","TLE_LINE1":"1 46545U 20070P   21324.63948203  .00000405  00000-0  46058-4 0  9996","SITE":"AFETR"},{"OBJECT_TYPE":"PAYLOAD","RCS_SIZE":"LARGE","RA_OF_ASC_NODE":"25.8045","TIME_SYSTEM":"UTC","ECCENTRICITY":"0.00012240","NORAD_CAT_ID":"46546","OBJECT_ID":"2020-070Q","REV_AT_EPOCH":"6282","REF_FRAME":"TEME","MEAN_ANOMALY":"296.2550","COUNTRY_CODE":"US","PERIAPSIS":"546.369","LAUNCH_DATE":"2020-10-06","TLE_LINE2":"2 46546  53.0558  25.8045 0001224  63.8565 296.2550 15.06398886 62820","EPOCH":"2021-11-20T10:12:59.736960","PERIOD":"95.592","CLASSIFICATION_TYPE":"U","DECAY_DATE":null,"GP_ID":"190142244","MEAN_MOTION":"15.06398886","SEMIMAJOR_AXIS":"6925.352","MEAN_MOTION_DOT":"0.00001718","ARG_OF_PERICENTER":"63.8565","OBJECT_NAME":"STARLINK-1697","EPHEMERIS_TYPE":"0","MEAN_MOTION_DDOT":"0.0000000000000","INCLINATION":"53.0558","ELEMENT_SET_NO":"999","CENTER_NAME":"EARTH","APOAPSIS":"548.065","FILE":"3220049","MEAN_ELEMENT_THEORY":"SGP4","TLE_LINE1":"1 46546U 20070Q   21324.42569140  .00001718  00000-0  13419-3 0  9995","SITE":"AFETR","BSTAR":"0.00013419000000"},{"INCLINATION":"53.0553","ELEMENT_SET_NO":"999","CENTER_NAME":"EARTH","FILE":"3220049","APOAPSIS":"548.153","MEAN_MOTION_DDOT":"0.0000000000000","TLE_LINE1":"1 46547U 20070R   21324.45518148 -.00000295  00000-0 -88882-6 0  9991","SITE":"AFETR","BSTAR":"-0.00000088882000","MEAN_ELEMENT_THEORY":"SGP4","DECAY_DATE":null,"GP_ID":"190141492","PERIOD":"95.593","CLASSIFICATION_TYPE":"U","ARG_OF_PERICENTER":"80.9913","OBJECT_NAME":"STARLINK-1698","EPHEMERIS_TYPE":"0","MEAN_MOTION":"15.06390796","SEMIMAJOR_AXIS":"6925.377","MEAN_MOTION_DOT":"-0.00000295","REF_FRAME":"TEME","MEAN_ANOMALY":"279.1225","OBJECT_ID":"2020-070R","REV_AT_EPOCH":"6283","TLE_LINE2":"2 46547  53.0553  25.6791 0001316  80.9913 279.1225 15.06390796 62833","EPOCH":"2021-11-20T10:55:27.679872","COUNTRY_CODE":"US","PERIAPSIS":"546.330","LAUNCH_DATE":"2020-10-06","RCS_SIZE":"LARGE","RA_OF_ASC_NODE":"25.6791","OBJECT_TYPE":"PAYLOAD","ECCENTRICITY":"0.00013160","NORAD_CAT_ID":"46547","TIME_SYSTEM":"UTC"},{"BSTAR":"0.00000662500000","TLE_LINE1":"1 46548U 20070S   21324.46624235 -.00000183  00000-0  66250-5 0  9997","SITE":"AFETR","MEAN_ELEMENT_THEORY":"SGP4","ELEMENT_SET_NO":"999","CENTER_NAME":"EARTH","APOAPSIS":"548.381","FILE":"3220049","INCLINATION":"53.0554","MEAN_MOTION_DDOT":"0.0000000000000","EPHEMERIS_TYPE":"0","ARG_OF_PERICENTER":"56.5326","OBJECT_NAME":"STARLINK-1699","SEMIMAJOR_AXIS":"6925.347","MEAN_MOTION_DOT":"-0.00000183","MEAN_MOTION":"15.06400374","GP_ID":"190141742","DECAY_DATE":null,"CLASSIFICATION_TYPE":"U","PERIOD":"95.592","EPOCH":"2021-11-20T11:11:23.339040","TLE_LINE2":"2 46548  53.0554  25.6393 0001688  56.5326 303.5824 15.06400374 62833","LAUNCH_DATE":"2020-10-06","COUNTRY_CODE":"US","PERIAPSIS":"546.043","REF_FRAME":"TEME","MEAN_ANOMALY":"303.5824","REV_AT_EPOCH":"6283","OBJECT_ID":"2020-070S","NORAD_CAT_ID":"46548","ECCENTRICITY":"0.00016880","TIME_SYSTEM":"UTC","RA_OF_ASC_NODE":"25.6393","RCS_SIZE":"LARGE","OBJECT_TYPE":"PAYLOAD"},{"INCLINATION":"53.0551","ELEMENT_SET_NO":"999","CENTER_NAME":"EARTH","FILE":"3220049","APOAPSIS":"547.964","MEAN_MOTION_DDOT":"0.0000000000000","TLE_LINE1":"1 46549U 20070T   21324.23035181  .00000865  00000-0  76964-4 0  9997","SITE":"AFETR","BSTAR":"0.00007696400000","MEAN_ELEMENT_THEORY":"SGP4","DECAY_DATE":null,"GP_ID":"190141994","PERIOD":"95.592","CLASSIFICATION_TYPE":"U","ARG_OF_PERICENTER":"60.2819","OBJECT_NAME":"STARLINK-1700","EPHEMERIS_TYPE":"0","MEAN_MOTION":"15.06401784","SEMIMAJOR_AXIS":"6925.343","MEAN_MOTION_DOT":"0.00000865","REF_FRAME":"TEME","MEAN_ANOMALY":"299.8279","OBJECT_ID":"2020-070T","REV_AT_EPOCH":"6279","TLE_LINE2":"2 46549  53.0551  26.6924 0001092  60.2819 299.8279 15.06401784 62792","EPOCH":"2021-11-20T05:31:42.396384","COUNTRY_CODE":"US","PERIAPSIS":"546.452","LAUNCH_DATE":"2020-10-06","RCS_SIZE":"LARGE","RA_OF_ASC_NODE":"26.6924","OBJECT_TYPE":"PAYLOAD","ECCENTRICITY":"0.00010920","NORAD_CAT_ID":"46549","TIME_SYSTEM":"UTC"},{"OBJECT_ID":"2020-070U","REV_AT_EPOCH":"6283","REF_FRAME":"TEME","MEAN_ANOMALY":"281.6839","COUNTRY_CODE":"US","PERIAPSIS":"546.214","LAUNCH_DATE":"2020-10-06","TLE_LINE2":"2 46550  53.0561  25.5614 0001475  78.4316 281.6839 15.06392701 62831","EPOCH":"2021-11-20T11:32:37.329504","OBJECT_TYPE":"PAYLOAD","RCS_SIZE":"LARGE","RA_OF_ASC_NODE":"25.5614","TIME_SYSTEM":"UTC","ECCENTRICITY":"0.00014750","NORAD_CAT_ID":"46550","MEAN_MOTION_DDOT":"0.0000000000000","INCLINATION":"53.0561","ELEMENT_SET_NO":"999","CENTER_NAME":"EARTH","FILE":"3220049","APOAPSIS":"548.257","MEAN_ELEMENT_THEORY":"SGP4","TLE_LINE1":"1 46550U 20070U   21324.48098761  .00001398  00000-0  11276-3 0  9995","SITE":"AFETR","BSTAR":"0.00011276000000","PERIOD":"95.593","CLASSIFICATION_TYPE":"U","DECAY_DATE":null,"GP_ID":"190142744","MEAN_MOTION":"15.06392701","SEMIMAJOR_AXIS":"6925.371","MEAN_MOTION_DOT":"0.00001398","ARG_OF_PERICENTER":"78.4316","OBJECT_NAME":"STARLINK-1701","EPHEMERIS_TYPE":"0"},{"TIME_SYSTEM":"UTC","ECCENTRICITY":"0.00014520","NORAD_CAT_ID":"46552","OBJECT_TYPE":"PAYLOAD","RCS_SIZE":"LARGE","RA_OF_ASC_NODE":"10.7455","COUNTRY_CODE":"US","PERIAPSIS":"546.224","LAUNCH_DATE":"2020-10-06","TLE_LINE2":"2 46552  53.0541  10.7455 0001452  72.8121 287.3027 15.06394715 63040","EPOCH":"2021-11-20T10:33:34.829280","OBJECT_ID":"2020-070W","REV_AT_EPOCH":"6304","REF_FRAME":"TEME","MEAN_ANOMALY":"287.3027","MEAN_MOTION":"15.06394715","SEMIMAJOR_AXIS":"6925.365","MEAN_MOTION_DOT":"0.00002115","ARG_OF_PERICENTER":"72.8121","OBJECT_NAME":"STARLINK-1649","EPHEMERIS_TYPE":"0","PERIOD":"95.592","CLASSIFICATION_TYPE":"U","DECAY_DATE":null,"GP_ID":"190140993","MEAN_ELEMENT_THEORY":"SGP4","TLE_LINE1":"1 46552U 20070W   21324.43998645  .00002115  00000-0  16085-3 0  9993","SITE":"AFETR","BSTAR":"0.00016085000000","MEAN_MOTION_DDOT":"0.0000000000000","INCLINATION":"53.0541","ELEMENT_SET_NO":"999","CENTER_NAME":"EARTH","APOAPSIS":"548.235","FILE":"3220049"},{"PERIAPSIS":"546.187","COUNTRY_CODE":"US","LAUNCH_DATE":"2020-10-06","TLE_LINE2":"2 46553  53.0554 355.6236 0001519  75.2748 284.8409 15.06391843 63257","EPOCH":"2021-11-20T11:14:01.488192","OBJECT_ID":"2020-070X","REV_AT_EPOCH":"6325","MEAN_ANOMALY":"284.8409","REF_FRAME":"TEME","TIME_SYSTEM":"UTC","ECCENTRICITY":"0.00015190","NORAD_CAT_ID":"46553","OBJECT_TYPE":"PAYLOAD","RCS_SIZE":"LARGE","RA_OF_ASC_NODE":"355.6236","MEAN_ELEMENT_THEORY":"SGP4","SITE":"AFETR","TLE_LINE1":"1 46553U 20070X   21324.46807278  .00000773  00000-0  70788-4 0  9997","BSTAR":"0.00007078800000","MEAN_MOTION_DDOT":"0.0000000000000","INCLINATION":"53.0554","FILE":"3220049","APOAPSIS":"548.291","ELEMENT_SET_NO":"999","CENTER_NAME":"EARTH","MEAN_MOTION":"15.06391843","MEAN_MOTION_DOT":"0.00000773","SEMIMAJOR_AXIS":"6925.374","OBJECT_NAME":"STARLINK-1664","ARG_OF_PERICENTER":"75.2748","EPHEMERIS_TYPE":"0","PERIOD":"95.593","CLASSIFICATION_TYPE":"U","DECAY_DATE":null,"GP_ID":"190141243"}];
